NORAD_CAT_ID,OBJECT_NAME,OBJECT_TYPE,EPOCH,MEAN_MOTION,ECCENTRICITY,INCLINATION,RA_OF_ASC_NODE,ARG_OF_PERICENTER,MEAN_ANOMALY,BSTAR,MEAN_MOTION_DOT,MEAN_MOTION_DDOT,TLE_LINE0,TLE_LINE1,TLE_LINE2,SEMIMAJOR_AXIS,PERIOD,APOGEE,PERIGEE,DECAYED
49169.0,STARLINK-3046,PAYLOAD,2024-04-19 12:54:46,14.98324474,0.0002745,70.0013,212.0593,250.8444,109.2418,0.00034752,4.055e-05,0.0,0 STARLINK-3046,1 49169U 21082AR  24110.53804219  .00004055  00000-0  34752-3 0  9990,2 49169  70.0013 212.0593 0002745 250.8444 109.2418 14.98324474144458,6950.21,96.107,573.983,570.167,0.0
49169.0,STARLINK-3046,PAYLOAD,2024-04-19 14:30:54,14.98328718,0.0002787,70.0005,211.8903,255.1386,104.9464,0.00035309,4.122e-05,0.0,0 STARLINK-3046,1 49169U 21082AR  24110.60479956  .00004122  00000-0  35309-3 0  9998,2 49169  70.0005 211.8903 0002787 255.1386 104.9464 14.98328718143255,6950.197,96.107,573.999,570.125,0.0
49169.0,STARLINK-3046,PAYLOAD,2024-04-19 16:07:02,14.98326217,0.0002669,70.0028,211.7246,231.9697,128.1221,0.00040477,4.739e-05,0.0,0 STARLINK-3046,1 49169U 21082AR  24110.67155969  .00004739  00000-0  40477-3 0  9996,2 49169  70.0028 211.7246 0002669 231.9697 128.1221 14.98326217143267,6950.205,96.107,573.925,570.215,0.0
49169.0,STARLINK-3046,PAYLOAD,2024-04-20 12:56:48,14.98322599,0.0002244,70.004,209.5394,217.6461,142.4542,-0.00025428,-3.125e-05,0.0,0 STARLINK-3046,1 49169U 21082AR  24111.53944600 -.00003125  00000-0 -25428-3 0  9999,2 49169  70.0040 209.5394 0002244 217.6461 142.4542 14.98322599144602,6950.216,96.107,573.64,570.521,0.0
49169.0,STARLINK-3046,PAYLOAD,2024-04-20 14:32:56,14.98323134,0.0002213,70.0038,209.3708,223.3749,136.7236,-0.0002409,-2.965e-05,0.0,0 STARLINK-3046,1 49169U 21082AR  24111.60620709 -.00002965  00000-0 -24090-3 0  9993,2 49169  70.0038 209.3708 0002213 223.3749 136.7236 14.98323134143404,6950.214,96.107,573.617,570.541,0.0
49169.0,STARLINK-3046,PAYLOAD,2024-04-20 16:09:04,14.98324322,0.0002212,70.0037,209.2027,226.2436,133.854,-0.00022852,-2.818e-05,0.0,0 STARLINK-3046,1 49169U 21082AR  24111.67296597 -.00002818  00000-0 -22852-3 0  9995,2 49169  70.0037 209.2027 0002212 226.2436 133.8540 14.98324322143417,6950.21,96.107,573.613,570.538,0.0
49169.0,STARLINK-3046,PAYLOAD,2024-04-21 14:34:57,14.9832096,0.0002085,70.003,206.8445,227.5925,132.5057,-9.483e-05,-1.224e-05,0.0,0 STARLINK-3046,1 49169U 21082AR  24112.60760781 -.00001224  00000-0 -94830-4 0  9996,2 49169  70.0030 206.8445 0002085 227.5925 132.5057 14.98320960143550,6950.221,96.108,573.535,570.637,0.0
49169.0,STARLINK-3046,PAYLOAD,2024-04-21 16:11:05,14.98319989,0.0002182,70.0027,206.6762,243.9019,116.1916,-5.8996e-05,-7.96e-06,0.0,0 STARLINK-3046,1 49169U 21082AR  24112.67436793 -.00000796  00000-0 -58996-4 0  9992,2 49169  70.0027 206.6762 0002182 243.9019 116.1916 14.98319989144776,6950.224,96.108,573.605,570.572,0.0
49169.0,STARLINK-3046,PAYLOAD,2024-04-22 05:00:09,14.98351698,0.0002506,70.0014,205.3282,266.111,93.9763,-0.00044889,-5.448e-05,0.0,0 STARLINK-3046,1 49169U 21082AR  24113.20843780 -.00005448  00000-0 -44889-3 0  9994,2 49169  70.0014 205.3282 0002506 266.1110  93.9763 14.98351698144858,6950.126,96.106,573.732,570.249,0.0
49169.0,STARLINK-3046,PAYLOAD,2024-04-22 09:48:33,14.98349355,0.0002387,70.0019,204.8217,261.6656,98.4233,-0.00041413,-5.033e-05,0.0,0 STARLINK-3046,1 49169U 21082AR  24113.40871558 -.00005033  00000-0 -41413-3 0  9990,2 49169  70.0019 204.8217 0002387 261.6656  98.4233 14.98349355143675,6950.133,96.106,573.657,570.339,0.0
49169.0,STARLINK-3046,PAYLOAD,2024-04-22 16:13:05,14.98337298,0.0002386,70.0037,204.1487,263.475,96.6137,-0.00019639,-2.436e-05,0.0,0 STARLINK-3046,1 49169U 21082AR  24113.67575627 -.00002436  00000-0 -19639-3 0  9996,2 49169  70.0037 204.1487 0002386 263.4750  96.6137 14.98337298143712,6950.17,96.107,573.694,570.377,0.0
49169.0,STARLINK-3046,PAYLOAD,2024-04-23 05:02:10,14.98328487,0.0002124,70.0037,202.8027,256.7938,103.2984,0.00033425,3.897e-05,0.0,0 STARLINK-3046,1 49169U 21082AR  24114.20984530  .00003897  00000-0  33425-3 0  9992,2 49169  70.0037 202.8027 0002124 256.7938 103.2984 14.98328487145009,6950.198,96.107,573.539,570.586,0.0
49169.0,STARLINK-3046,PAYLOAD,2024-04-23 14:38:58,14.98333171,0.000218,70.0037,201.7933,254.1041,105.9878,0.0003499,4.085e-05,0.0,0 STARLINK-3046,1 49169U 21082AR  24114.61040356  .00004085  00000-0  34990-3 0  9994,2 49169  70.0037 201.7933 0002180 254.1041 105.9878 14.98333171143850,6950.183,96.107,573.563,570.533,0.0
49169.0,STARLINK-3046,PAYLOAD,2024-04-23 16:15:06,14.98335275,0.0002218,70.0038,201.6255,250.0015,110.0905,0.00037701,4.409e-05,0.0,0 STARLINK-3046,1 49169U 21082AR  24114.67716236  .00004409  00000-0  37701-3 0  9990,2 49169  70.0038 201.6255 0002218 250.0015 110.0905 14.98335275143861,6950.177,96.107,573.583,570.5,0.0
49169.0,STARLINK-3046,PAYLOAD,2024-04-24 13:04:51,14.98339659,0.0002381,70.0038,199.4378,252.0483,108.0416,0.00024891,2.879e-05,0.0,0 STARLINK-3046,1 49169U 21082AR  24115.54503689  .00002879  00000-0  24891-3 0  9998,2 49169  70.0038 199.4378 0002381 252.0483 108.0416 14.98339659145207,6950.163,96.106,573.683,570.373,0.0
49169.0,STARLINK-3046,PAYLOAD,2024-04-24 14:40:59,14.98342253,0.0002604,70.0026,199.268,273.9498,86.1364,0.00028251,3.281e-05,0.0,0 STARLINK-3046,1 49169U 21082AR  24115.61179742  .00003281  00000-0  28251-3 0  9997,2 49169  70.0026 199.2680 0002604 273.9498  86.1364 14.98342253144003,6950.155,96.106,573.83,570.21,0.0
49169.0,STARLINK-3046,PAYLOAD,2024-04-25 05:06:09,14.9836949,0.0003056,70.0021,197.753,271.9363,88.1446,0.00056352,6.644e-05,0.0,0 STARLINK-3046,1 49169U 21082AR  24116.21261085  .00006644  00000-0  56352-3 0  9995,2 49169  70.0021 197.7530 0003056 271.9363  88.1446 14.98369490145305,6950.071,96.104,574.06,569.812,0.0
49169.0,STARLINK-3046,PAYLOAD,2024-04-25 13:06:51,14.98321987,0.0002679,70.0024,196.9119,263.3526,96.7329,-0.00039372,-4.786e-05,0.0,0 STARLINK-3046,1 49169U 21082AR  24116.54643298 -.00004786  00000-0 -39372-3 0  9991,2 49169  70.0024 196.9119 0002679 263.3526  96.7329 14.98321987145357,6950.218,96.108,573.945,570.221,0.0
49169.0,STARLINK-3046,PAYLOAD,2024-04-25 14:42:59,14.98323391,0.0002773,70.0024,196.7432,268.2623,91.8218,-0.00034427,-4.197e-05,0.0,0 STARLINK-3046,1 49169U 21082AR  24116.61319205 -.00004197  00000-0 -34427-3 0  9999,2 49169  70.0024 196.7432 0002773 268.2623  91.8218 14.98323391144151,6950.213,96.107,574.006,570.151,0.0
49169.0,STARLINK-3046,PAYLOAD,2024-04-26 13:08:52,14.98329641,0.0002961,70.0015,194.3859,270.8207,89.2613,-0.00011106,-1.418e-05,0.0,0 STARLINK-3046,1 49169U 21082AR  24117.54783077 -.00001418  00000-0 -11106-3 0  9996,2 49169  70.0015 194.3859 0002961 270.8207  89.2613 14.98329641145508,6950.194,96.107,574.117,570.001,0.0
49169.0,STARLINK-3046,PAYLOAD,2024-04-26 14:45:00,14.9832699,0.0002596,70.0025,194.2178,265.496,94.5903,-6.1678e-05,-8.29e-06,0.0,0 STARLINK-3046,1 49169U 21082AR  24117.61459240 -.00000829  00000-0 -61678-4 0  9991,2 49169  70.0025 194.2178 0002596 265.4960  94.5903 14.98326990144304,6950.202,96.107,573.871,570.263,0.0
49169.0,STARLINK-3046,PAYLOAD,2024-04-26 22:45:40,14.98335537,0.0003172,70.0014,193.3748,274.0285,86.0512,-6.3617e-05,-8.52e-06,0.0,0 STARLINK-3046,1 49169U 21082AR  24117.94838769 -.00000852  00000-0 -63617-4 0  9995,2 49169  70.0014 193.3748 0003172 274.0285  86.0512 14.98335537144356,6950.176,96.107,574.245,569.836,0.0
49169.0,STARLINK-3046,PAYLOAD,2024-04-27 05:10:12,14.98338783,0.0003135,70.0013,192.7011,271.3811,88.6989,7.1158e-05,7.56e-06,0.0,0 STARLINK-3046,1 49169U 21082AR  24118.21542518  .00000756  00000-0  71158-4 0  9990,2 49169  70.0013 192.7011 0003135 271.3811  88.6989 14.98338783145606,6950.166,96.106,574.21,569.852,0.0
49169.0,STARLINK-3046,PAYLOAD,2024-04-27 13:10:53,14.98345792,0.0003138,70.0015,191.8611,273.4312,86.6488,0.0010292,0.00012214,0.0,0 STARLINK-3046,1 49169U 21082AR  24118.54922997  .00012214  00000-0  10292-2 0  9991,2 49169  70.0015 191.8611 0003138 273.4312  86.6488 14.98345792144447,6950.144,96.106,574.19,569.828,0.0
49169.0,STARLINK-3046,PAYLOAD,2024-04-27 14:47:01,14.98348695,0.0003125,70.0014,191.6927,273.4014,86.6787,0.0010766,0.00012783,0.0,0 STARLINK-3046,1 49169U 21082AR  24118.61598897  .00012783  00000-0  10766-2 0  9994,2 49169  70.0014 191.6927 0003125 273.4014  86.6787 14.98348695144457,6950.135,96.106,574.172,569.828,0.0
49169.0,STARLINK-3046,PAYLOAD,2024-04-28 13:12:55,14.98319384,0.0003072,70.001,189.3368,276.699,83.3819,-0.00011888,-1.511e-05,0.0,0 STARLINK-3046,1 49169U 21082AR  24119.55063998 -.00001511  00000-0 -11888-3 0  9993,2 49169  70.0010 189.3368 0003072 276.6990  83.3819 14.98319384145808,6950.226,96.108,574.226,569.956,0.0
49169.0,STARLINK-3046,PAYLOAD,2024-04-28 14:49:03,14.98319865,0.0003068,70.001,189.1684,276.9201,83.1609,-6.2446e-05,-8.38e-06,0.0,0 STARLINK-3046,1 49169U 21082AR  24119.61740052 -.00000838  00000-0 -62446-4 0  9991,2 49169  70.0010 189.1684 0003068 276.9201  83.1609 14.98319865144606,6950.224,96.108,574.222,569.957,0.0
49169.0,STARLINK-3046,PAYLOAD,2024-04-29 13:14:56,14.98339202,0.000317,70.0006,186.8117,279.5661,80.514,0.00082047,9.713e-05,0.0,0 STARLINK-3046,1 49169U 21082AR  24120.55204047  .00009713  00000-0  82047-3 0  9992,2 49169  70.0006 186.8117 0003170 279.5661  80.5140 14.98339202145956,6950.164,96.106,574.233,569.826,0.0
49169.0,STARLINK-3046,PAYLOAD,2024-04-29 14:51:04,14.98340336,0.000306,70.0007,186.644,273.0134,87.0675,0.000786,9.3e-05,0.0,0 STARLINK-3046,1 49169U 21082AR  24120.61879950  .00009300  00000-0  78600-3 0  9992,2 49169  70.0007 186.6440 0003060 273.0134  87.0675 14.98340336144758,6950.161,96.106,574.153,569.899,0.0
49169.0,STARLINK-3046,PAYLOAD,2024-04-29 21:15:36,14.98339664,0.0003083,70.0008,185.9702,279.9257,80.1553,0.00047204,5.545e-05,0.0,0 STARLINK-3046,1 49169U 21082AR  24120.88583893  .00005545  00000-0  47204-3 0  9992,2 49169  70.0008 185.9702 0003083 279.9257  80.1553 14.98339664144793,6950.163,96.106,574.171,569.885,0.0
